CTC2_L_00338016-03
1 10062U 25472QH  26075.70045139  .00000000  00000+0  00000-0 0  9997
2 10062 100.0000 180.0000 0000000   0.0000   0.0000 13.56072486    14
CTC2_L_00338016-04
1 10063U 24404OW  26075.70045139  .00000000  00000+0  00000-0 0  9992
2 10063 100.0000 180.0000 0000000   0.0000  90.0000 13.56072486    14
CTC2_L_00338017-01
1 10064U 24633LZ  26075.70045139  .00000000  00000+0  00000-0 0  9997
2 10064 100.0000 192.0000 0000000   0.0000 192.0000 13.56072486    11
CTC2_L_00338017-02
1 10065U 25188UX  26075.70045139  .00000000  00000+0  00000-0 0  9994
2 10065 100.0000 192.0000 0000000   0.0000 282.0000 13.56072486    12
CTC2_L_00338017-03
1 10066U 25858XC  26075.70045139  .00000000  00000+0  00000-0 0  9999
2 10066 100.0000 192.0000 0000000   0.0000  12.0000 13.56072486    14
CTC2_L_00338017-04
1 10067U 22786HJ  26075.70045139  .00000000  00000+0  00000-0 0  9997
2 10067 100.0000 192.0000 0000000   0.0000 102.0000 13.56072486    15
CTC2_L_00338018-01
1 10068U 23222QU  26075.70045139  .00000000  00000+0  00000-0 0  9994
2 10068 100.0000 204.0000 0000000   0.0000 204.0000 13.56072486    13
CTC2_L_00338018-02
1 10069U 25481FM  26075.70045139  .00000000  00000+0  00000-0 0  9994
2 10069 100.0000 204.0000 0000000   0.0000 294.0000 13.56072486    13
CTC2_L_00338018-03
1 10070U 23639RQ  26075.70045139  .00000000  00000+0  00000-0 0  9999
2 10070 100.0000 204.0000 0000000   0.0000  24.0000 13.56072486    16
CTC2_L_00338018-04
1 10071U 26996QP  26075.70045139  .00000000  00000+0  00000-0 0  9999
2 10071 100.0000 204.0000 0000000   0.0000 114.0000 13.56072486    17
CTC2_L_00338019-01
1 10072U 23144RK  26075.70045139  .00000000  00000+0  00000-0 0  9992
2 10072 100.0000 216.0000 0000000   0.0000 216.0000 13.56072486    14
CTC2_L_00338019-02
1 10073U 24775IU  26075.70045139  .00000000  00000+0  00000-0 0  9994
2 10073 100.0000 216.0000 0000000   0.0000 306.0000 13.56072486    15
CTC2_L_00338019-03
1 10074U 26587CJ  26075.70045139  .00000000  00000+0  00000-0 0  9998
2 10074 100.0000 216.0000 0000000   0.0000  36.0000 13.56072486    16
CTC2_L_00338019-04
1 10075U 24164VM  26075.70045139  .00000000  00000+0  00000-0 0  9998
2 10075 100.0000 216.0000 0000000   0.0000 126.0000 13.56072486    17
CTC2_L_00338020-01
1 10076U 25616VC  26075.70045139  .00000000  00000+0  00000-0 0  9992
2 10076 100.0000 228.0000 0000000   0.0000 228.0000 13.56072486    14
CTC2_L_00338020-02
1 10077U 26466JQ  26075.70045139  .00000000  00000+0  00000-0 0  9997
2 10077 100.0000 228.0000 0000000   0.0000 318.0000 13.56072486    15
CTC2_L_00338020-03
1 10078U 26525HH  26075.70045139  .00000000  00000+0  00000-0 0  9994
2 10078 100.0000 228.0000 0000000   0.0000  48.0000 13.56072486    16
CTC2_L_00338020-04
1 10079U 22412HL  26075.70045139  .00000000  00000+0  00000-0 0  9996
2 10079 100.0000 228.0000 0000000   0.0000 138.0000 13.56072486    17
CTC2_L_00338021-01
1 10080U 22096GI  26075.70045139  .00000000  00000+0  00000-0 0  9996
2 10080 100.0000 240.0000 0000000   0.0000 240.0000 13.56072486    17
CTC2_L_00338021-02
1 10081U 25570XR  26075.70045139  .00000000  00000+0  00000-0 0  9997
2 10081 100.0000 240.0000 0000000   0.0000 330.0000 13.56072486    18
CTC2_L_00338021-03
1 10082U 24647MF  26075.70045139  .00000000  00000+0  00000-0 0  9992
2 10082 100.0000 240.0000 0000000   0.0000  60.0000 13.56072486    19
CTC2_L_00338021-04
1 10083U 26867OZ  26075.70045139  .00000000  00000+0  00000-0 0  9999
2 10083 100.0000 240.0000 0000000   0.0000 150.0000 13.56072486    10
CTC2_L_00338022-01
1 10084U 25702KE  26075.70045139  .00000000  00000+0  00000-0 0  9997
2 10084 100.0000 252.0000 0000000   0.0000 252.0000 13.56072486    17
CTC2_L_00338022-02
1 10085U 25552TZ  26075.70045139  .00000000  00000+0  00000-0 0  9991
2 10085 100.0000 252.0000 0000000   0.0000 342.0000 13.56072486    18
CTC2_L_00338022-03
1 10086U 24059KR  26075.70045139  .00000000  00000+0  00000-0 0  9993
2 10086 100.0000 252.0000 0000000   0.0000  72.0000 13.56072486    19
CTC2_L_00338022-04
1 10087U 26631ZN  26075.70045139  .00000000  00000+0  00000-0 0  9992
2 10087 100.0000 252.0000 0000000   0.0000 162.0000 13.56072486    10
CTC2_L_00338023-01
1 10088U 22851TN  26075.70045139  .00000000  00000+0  00000-0 0  9993
2 10088 100.0000 264.0000 0000000   0.0000 264.0000 13.56072486    17
CTC2_L_00338023-02
1 10089U 22938LV  26075.70045139  .00000000  00000+0  00000-0 0  9990
2 10089 100.0000 264.0000 0000000   0.0000 354.0000 13.56072486    18
CTC2_L_00338023-03
1 10090U 22191ZS  26075.70045139  .00000000  00000+0  00000-0 0  9993
2 10090 100.0000 264.0000 0000000   0.0000  84.0000 13.56072486    10
CTC2_L_00338023-04
1 10091U 23452QT  26075.70045139  .00000000  00000+0  00000-0 0  9995
2 10091 100.0000 264.0000 0000000   0.0000 174.0000 13.56072486    11
CTC2_L_00338024-01
1 10092U 22348NH  26075.70045139  .00000000  00000+0  00000-0 0  9999
2 10092 100.0000 276.0000 0000000   0.0000 276.0000 13.56072486    18
CTC2_L_00338024-02
1 10093U 24601TP  26075.70045139  .00000000  00000+0  00000-0 0  9994
2 10093 100.0000 276.0000 0000000   0.0000   6.0000 13.56072486    10
CTC2_L_00338024-03
1 10094U 24065S   26075.70045139  .00000000  00000+0  00000-0 0  9999
2 10094 100.0000 276.0000 0000000   0.0000  96.0000 13.56072486    10
CTC2_L_00338024-04
1 10095U 26698GF  26075.70045139  .00000000  00000+0  00000-0 0  9994
2 10095 100.0000 276.0000 0000000   0.0000 186.0000 13.56072486    11
CTC2_L_00338025-01
1 10096U 24587KC  26075.70045139  .00000000  00000+0  00000-0 0  9990
2 10096 100.0000 288.0000 0000000   0.0000 288.0000 13.56072486    18
CTC2_L_00338025-02
1 10097U 24755AY  26075.70045139  .00000000  00000+0  00000-0 0  9998
2 10097 100.0000 288.0000 0000000   0.0000  18.0000 13.56072486    10
CTC2_L_00338025-03
1 10098U 25215WX  26075.70045139  .00000000  00000+0  00000-0 0  9991
2 10098 100.0000 288.0000 0000000   0.0000 108.0000 13.56072486    11
CTC2_L_00338025-04
1 10099U 23238BE  26075.70045139  .00000000  00000+0  00000-0 0  9995
2 10099 100.0000 288.0000 0000000   0.0000 198.0000 13.56072486    11
CTC2_L_00338026-01
1 10100U 23997UC  26075.70045139  .00000000  00000+0  00000-0 0  9990
2 10100 100.0000 300.0000 0000000   0.0000 300.0000 13.56072486    14
CTC2_L_00338026-02
1 10101U 23405YA  26075.70045139  .00000000  00000+0  00000-0 0  9995
2 10101 100.0000 300.0000 0000000   0.0000  30.0000 13.56072486    15
CTC2_L_00338026-03
1 10102U 23424MK  26075.70045139  .00000000  00000+0  00000-0 0  9997
2 10102 100.0000 300.0000 0000000   0.0000 120.0000 13.56072486    16
CTC2_L_00338026-04
1 10103U 25553FU  26075.70045139  .00000000  00000+0  00000-0 0  9993
2 10103 100.0000 300.0000 0000000   0.0000 210.0000 13.56072486    17
CTC2_L_00338027-01
1 10104U 26654DJ  26075.70045139  .00000000  00000+0  00000-0 0  9997
2 10104 100.0000 312.0000 0000000   0.0000 312.0000 13.56072486    14
CTC2_L_00338027-02
1 10105U 22220CU  26075.70045139  .00000000  00000+0  00000-0 0  9993
2 10105 100.0000 312.0000 0000000   0.0000  42.0000 13.56072486    15
CTC2_L_00338027-03
1 10106U 26006XK  26075.70045139  .00000000  00000+0  00000-0 0  9990
2 10106 100.0000 312.0000 0000000   0.0000 132.0000 13.56072486    16
CTC2_L_00338027-04
1 10107U 25947OU  26075.70045139  .00000000  00000+0  00000-0 0  9994
2 10107 100.0000 312.0000 0000000   0.0000 222.0000 13.56072486    17
CTC2_L_00338028-01
1 10108U 25604TH  26075.70045139  .00000000  00000+0  00000-0 0  9995
2 10108 100.0000 324.0000 0000000   0.0000 324.0000 13.56072486    14
CTC2_L_00338028-02
1 10109U 25866EY  26075.70045139  .00000000  00000+0  00000-0 0  9996
2 10109 100.0000 324.0000 0000000   0.0000  54.0000 13.56072486    15
CTC2_L_00338028-03
1 10110U 25031JX  26075.70045139  .00000000  00000+0  00000-0 0  9992
2 10110 100.0000 324.0000 0000000   0.0000 144.0000 13.56072486    17
CTC2_L_00338028-04
1 10111U 23564LD  26075.70045139  .00000000  00000+0  00000-0 0  9992
2 10111 100.0000 324.0000 0000000   0.0000 234.0000 13.56072486    18
CTC2_L_00338029-01
1 10112U 24870HU  26075.70045139  .00000000  00000+0  00000-0 0  9994
2 10112 100.0000 336.0000 0000000   0.0000 336.0000 13.56072486    15
CTC2_L_00338029-02
1 10113U 24580TS  26075.70045139  .00000000  00000+0  00000-0 0  9993
2 10113 100.0000 336.0000 0000000   0.0000  66.0000 13.56072486    16
CTC2_L_00338029-03
1 10114U 26021MB  26075.70045139  .00000000  00000+0  00000-0 0  9996
2 10114 100.0000 336.0000 0000000   0.0000 156.0000 13.56072486    17
CTC2_L_00338029-04
1 10115U 26913TF  26075.70045139  .00000000  00000+0  00000-0 0  9997
2 10115 100.0000 336.0000 0000000   0.0000 246.0000 13.56072486    18
CTC2_L_00338030-01
1 10116U 24106DA  26075.70045139  .00000000  00000+0  00000-0 0  9990
2 10116 100.0000 348.0000 0000000   0.0000 348.0000 13.56072486    15
CTC2_L_00338030-02
1 10117U 25788D   26075.70045139  .00000000  00000+0  00000-0 0  9998
2 10117 100.0000 348.0000 0000000   0.0000  78.0000 13.56072486    16
CTC2_L_00338030-03
1 10118U 23347SS  26075.70045139  .00000000  00000+0  00000-0 0  9998
2 10118 100.0000 348.0000 0000000   0.0000 168.0000 13.56072486    17
CTC2_L_00338030-04
1 10119U 26256EX  26075.70045139  .00000000  00000+0  00000-0 0  9991
2 10119 100.0000 348.0000 0000000   0.0000 258.0000 13.56072486    18
